OBJECT_NAME,OBJECT_ID,EPOCH,MEAN_MOTION,ECCENTRICITY,INCLINATION,RA_OF_ASC_NODE,ARG_OF_PERICENTER,MEAN_ANOMALY,EPHEMERIS_TYPE,CLASSIFICATION_TYPE,NORAD_CAT_ID,ELEMENT_SET_NO,REV_AT_EPOCH,BSTAR,MEAN_MOTION_DOT,MEAN_MOTION_DDOT
OCEANSAT-2,2009-051A,2026-07-14T20:45:07.073280,13.99656019,.001732,98.2320,179.9528,154.4338,205.7688,0,U,35931,999,88320,-.44456E-4,-.103E-5,0
WORLDVIEW-2 (WV-2),2009-055A,2026-07-14T20:36:55.607616,14.37906837,.00053,98.4757,268.9318,130.6554,229.5094,0,U,35946,999,87962,.26007E-4,.35E-6,0
SMOS,2009-059A,2026-07-14T12:02:03.650496,14.39735847,.0001146,98.4427,22.4360,95.7390,264.3929,0,U,36036,999,87738,.57657615E-4,.137E-5,0
YAOGAN-7,2009-069A,2026-07-14T15:24:45.769824,14.78035216,.0023549,98.0034,81.3353,313.2260,46.6983,0,U,36110,999,89368,.36592E-4,.212E-5,0
TANDEM-X,2010-030A,2026-07-07T11:29:58.986816,15.19154052,.0001887,97.4457,195.8973,94.3019,265.8431,0,U,36605,999,88972,.21566E-4,.386E-5,0
CARTOSAT-2B,2010-035A,2026-07-14T21:09:43.237152,14.78615142,.0012564,97.9944,246.2516,100.0389,260.2240,0,U,36795,999,86394,-.17814E-4,-.183E-5,0
YAOGAN-10,2010-038A,2026-07-14T21:56:47.082048,14.85429481,.0001649,97.8968,219.0973,84.4397,38.5032,0,U,36834,999,86132,.15143E-3,.1251E-4,0
COSMO-SKYMED 4,2010-060A,2026-07-14T20:28:21.360864,14.82147915,.0001473,97.8886,19.0526,85.1208,275.0173,0,U,37216,999,84866,.21291E-4,.117E-5,0
RESOURCESAT-2,2011-015A,2026-07-14T19:40:34.888800,14.21599481,.0011522,98.7632,263.0689,172.1247,188.0113,0,U,37387,999,79010,.19471E-4,-.2E-7,0
HAIYANG-2A,2011-043A,2026-07-14T20:33:36.281088,13.73342204,.0002553,99.3394,197.8993,27.9989,332.1296,0,U,37781,999,75045,-.29634E-3,-.319E-5,0
RASAT,2011-044D,2026-07-14T20:41:18.434688,14.68193356,.002191,98.0587,286.8369,103.6425,35.3725,0,U,37791,999,79724,.91213E-4,.478E-5,0
SRMSAT,2011-058D,2026-07-14T07:00:26.119872,14.11580990,.0011787,19.9711,255.4136,141.3057,265.6885,0,U,37841,999,76165,.42066051E-4,.343E-5,0
PLEIADES 1A,2011-076F,2026-07-14T20:31:01.626816,14.58546121,.0001688,98.1976,270.5846,79.9697,55.0237,0,U,38012,999,77602,.33695E-5,-.3E-6,0
ZIYUAN 1-02C (ZY 1-02C),2011-079A,2026-07-14T21:39:21.690432,14.38234573,.0005574,98.4068,262.6299,215.8158,198.9601,0,U,38038,999,76319,.4662E-5,-.29E-6,0
ARIRANG-3 (KOMPSAT-3),2012-025B,2026-07-14T21:12:33.701760,14.62228865,.0006241,98.1184,152.8684,39.7016,320.4641,0,U,38338,999,75539,.4607E-4,.186E-5,0
EXACTVIEW-1 (ADS-1B),2012-039C,2026-07-14T20:03:06.551136,14.24992170,.0011953,98.9805,313.8537,92.4383,267.8164,0,U,38709,999,72664,.35475E-4,.37E-6,0
SPOT 6,2012-047A,2026-07-14T20:16:09.247872,14.58538456,.0001102,98.2115,262.8276,83.9138,276.2186,0,U,38755,999,73708,.26539E-4,.78E-6,0
PLEIADES 1B,2012-068A,2026-07-14T20:42:55.819584,14.58534078,.0001591,98.1948,270.5323,78.3419,281.7959,0,U,39019,999,72488,.30625E-4,.97E-6,0
GOKTURK 2,2012-073A,2026-07-14T19:35:08.251008,14.75567745,.0000909,97.6807,31.8618,91.2534,268.8781,0,U,39030,999,72858,.18803E-4,.81E-6,0
LANDSAT 8,2013-008A,2026-07-14T20:03:54.237024,14.57111706,.0001341,98.2291,265.6413,94.2334,265.9018,0,U,39084,999,70192,.44481E-4,.155E-5,0
SARAL,2013-009A,2026-07-14T19:59:46.523904,14.32895777,.0001681,98.5555,22.0508,167.3952,192.7275,0,U,39086,999,69956,.30399E-4,.39E-6,0
GAOFEN-1,2013-018A,2026-07-14T20:20:48.185088,14.76519351,.0017009,97.9093,267.3518,172.1815,187.9663,0,U,39150,999,71232,.77787E-4,.492E-5,0
VNREDSAT 1,2013-021B,2026-07-14T19:42:50.839200,14.64882842,.0001596,97.9071,248.1750,79.0042,281.1341,0,U,39160,999,70433,.23026E-4,.78E-6,0
ARIRANG-5 (KOMPSAT-5),2013-042A,2026-07-14T20:00:13.271616,15.04495664,.0005448,97.6206,22.1460,59.1246,301.0516,0,U,39227,999,70801,.56349E-4,.728E-5,0
SKYSAT-A,2013-066C,2026-07-14T16:52:07.332096,15.13113646,.0020429,97.3805,244.2233,215.2289,144.7594,0,U,39418,999,69264,.87889E-4,.1499E-4,0
DUBAISAT-2,2013-066D,2026-07-14T19:57:19.808064,15.10372902,.0009438,97.4575,185.2561,304.7126,55.3214,0,U,39419,999,69056,.72587E-4,.113E-4,0
GPM-CORE,2014-009C,2026-07-14T20:26:44.966976,15.45040667,.0010974,64.9691,215.4372,261.9596,98.0299,0,U,39574,999,70208,.75228E-4,.3316E-4,0
SENTINEL-1A,2014-016A,2026-07-14T20:45:02.892384,14.59195545,.0001452,98.1768,202.9933,86.4897,273.6469,0,U,39634,999,65405,-.41539E-4,-.242E-5,0
KAZEOSAT 1,2014-024A,2026-07-14T20:17:07.479744,14.42036672,.0001232,98.3204,267.6025,81.6891,278.4438,0,U,39731,999,64254,.37957E-7,-.43E-6,0
ALOS-2,2014-029A,2026-07-14T20:50:50.513280,14.79472053,.000158,97.9233,292.6365,90.5675,269.5718,0,U,39766,999,65567,.48092E-4,.308E-5,0
KAZEOSAT 2,2014-033A,2026-07-14T20:20:23.105760,14.85501745,.0007385,97.5393,33.9967,220.6141,139.4525,0,U,40010,999,65306,.9592E-4,.778E-5,0
