OCEANSAT-2              
1 35931U 09051A   26195.86466520 -.00000103  00000+0 -44456-4 0  9998
2 35931  98.2320 179.9528 0017320 154.4338 205.7688 13.99656019883205
WORLDVIEW-2 (WV-2)      
1 35946U 09055A   26195.85897694  .00000035  00000+0  26007-4 0  9991
2 35946  98.4757 268.9318 0005300 130.6554 229.5094 14.37906837879629
SMOS                    
1 36036U 09059A   26195.50143114  .00000137  00000+0  57658-4 0  9998
2 36036  98.4427  22.4360 0001146  95.7390 264.3929 14.39735847877385
YAOGAN-7                
1 36110U 09069A   26195.64219641  .00000212  00000+0  36592-4 0  9994
2 36110  98.0034  81.3353 0023549 313.2260  46.6983 14.78035216893687
TANDEM-X                
1 36605U 10030A   26188.47915494  .00000386  00000+0  21566-4 0  9992
2 36605  97.4457 195.8973 0001887  94.3019 265.8431 15.19154052889726
CARTOSAT-2B             
1 36795U 10035A   26195.88175043 -.00000183  00000+0 -17814-4 0  9996
2 36795  97.9944 246.2516 0012564 100.0389 260.2240 14.78615142863944
YAOGAN-10               
1 36834U 10038A   26195.91443382  .00001251  00000+0  15143-3 0  9998
2 36834  97.8968 219.0973 0001649  84.4397  38.5032 14.85429481861326
COSMO-SKYMED 4          
1 37216U 10060A   26195.85302501  .00000117  00000+0  21291-4 0  9990
2 37216  97.8886  19.0526 0001473  85.1208 275.0173 14.82147915848668
RESOURCESAT-2           
1 37387U 11015A   26195.81984825 -.00000002  00000+0  19471-4 0  9992
2 37387  98.7632 263.0689 0011522 172.1247 188.0113 14.21599481790107
HAIYANG-2A              
1 37781U 11043A   26195.85666992 -.00000319  00000+0 -29634-3 0  9990
2 37781  99.3394 197.8993 0002553  27.9989 332.1296 13.73342204750456
RASAT                   
1 37791U 11044D   26195.86201892  .00000478  00000+0  91213-4 0  9994
2 37791  98.0587 286.8369 0021910 103.6425  35.3725 14.68193356797242
SRMSAT                  
1 37841U 11058D   26195.29196898  .00000343  00000+0  42066-4 0  9994
2 37841  19.9711 255.4136 0011787 141.3057 265.6885 14.11580990761657
PLEIADES 1A             
1 38012U 11076F   26195.85487994 -.00000030  00000+0  33695-5 0  9990
2 38012  98.1976 270.5846 0001688  79.9697  55.0237 14.58546121776029
ZIYUAN 1-02C (ZY 1-02C) 
1 38038U 11079A   26195.90233438 -.00000029  00000+0  46620-5 0  9999
2 38038  98.4068 262.6299 0005574 215.8158 198.9601 14.38234573763196
ARIRANG-3 (KOMPSAT-3)   
1 38338U 12025B   26195.88372340  .00000186  00000+0  46070-4 0  9998
2 38338  98.1184 152.8684 0006241  39.7016 320.4641 14.62228865755394
EXACTVIEW-1 (ADS-1B)    
1 38709U 12039C   26195.83549249  .00000037  00000+0  35475-4 0  9996
2 38709  98.9805 313.8537 0011953  92.4383 267.8164 14.24992170726644
SPOT 6                  
1 38755U 12047A   26195.84455148  .00000078  00000+0  26539-4 0  9997
2 38755  98.2115 262.8276 0001102  83.9138 276.2186 14.58538456737081
PLEIADES 1B             
1 39019U 12068A   26195.86314606  .00000097  00000+0  30625-4 0  9991
2 39019  98.1948 270.5323 0001591  78.3419 281.7959 14.58534078724888
GOKTURK 2               
1 39030U 12073A   26195.81606772  .00000081  00000+0  18803-4 0  9990
2 39030  97.6807  31.8618 0000909  91.2534 268.8781 14.75567745728584
LANDSAT 8               
1 39084U 13008A   26195.83604441  .00000155  00000+0  44481-4 0  9994
2 39084  98.2291 265.6413 0001341  94.2334 265.9018 14.57111706701921
SARAL                   
1 39086U 13009A   26195.83317736  .00000039  00000+0  30399-4 0  9999
2 39086  98.5555  22.0508 0001681 167.3952 192.7275 14.32895777699562
GAOFEN-1                
1 39150U 13018A   26195.84777992  .00000492  00000+0  77787-4 0  9991
2 39150  97.9093 267.3518 0017009 172.1815 187.9663 14.76519351712328
VNREDSAT 1              
1 39160U 13021B   26195.82142175  .00000078  00000+0  23026-4 0  9990
2 39160  97.9071 248.1750 0001596  79.0042 281.1341 14.64882842704338
ARIRANG-5 (KOMPSAT-5)   
1 39227U 13042A   26195.83348694  .00000728  00000+0  56349-4 0  9998
2 39227  97.6206  22.1460 0005448  59.1246 301.0516 15.04495664708014
SKYSAT-A                
1 39418U 13066C   26195.70286264  .00001499  00000+0  87889-4 0  9995
2 39418  97.3805 244.2233 0020429 215.2289 144.7594 15.13113646692647
DUBAISAT-2              
1 39419U 13066D   26195.83147926  .00001130  00000+0  72587-4 0  9992
2 39419  97.4575 185.2561 0009438 304.7126  55.3214 15.10372902690566
GPM-CORE                
1 39574U 14009C   26195.85190934  .00003316  00000+0  75228-4 0  9994
2 39574  64.9691 215.4372 0010974 261.9596  98.0299 15.45040667702080
SENTINEL-1A             
1 39634U 14016A   26195.86461681 -.00000242  00000+0 -41539-4 0  9995
2 39634  98.1768 202.9933 0001452  86.4897 273.6469 14.59195545654053
KAZEOSAT 1              
1 39731U 14024A   26195.84522546 -.00000043  00000+0  37957-7 0  9998
2 39731  98.3204 267.6025 0001232  81.6891 278.4438 14.42036672642542
ALOS-2                  
1 39766U 14029A   26195.86864020  .00000308  00000+0  48092-4 0  9991
2 39766  97.9233 292.6365 0001580  90.5675 269.5718 14.79472053655674
KAZEOSAT 2              
1 40010U 14033A   26195.84748965  .00000778  00000+0  95920-4 0  9990
2 40010  97.5393  33.9967 0007385 220.6141 139.4525 14.85501745653068
